{
    "links": {
        "self": "http://www.neowsapp.com/rest/v1/neo/3831219?api_key=iIulBulltgU6a56xZRHN4H3l9WmuAYTsLGpBGhQ2"
    },
    "id": "3831219",
    "neo_reference_id": "3831219",
    "name": "(2018 TF2)",
    "designation": "2018 TF2",
    "nasa_jpl_url": "http://ssd.jpl.nasa.gov/sbdb.cgi?sstr=3831219",
    "absolute_magnitude_h": 26.6,
    "estimated_diameter": {
        "kilometers": {
            "estimated_diameter_min": 0.0127219879,
            "estimated_diameter_max": 0.0284472297
        },
        "meters": {
            "estimated_diameter_min": 12.7219878539,
            "estimated_diameter_max": 28.4472296503
        },
        "miles": {
            "estimated_diameter_min": 0.0079050743,
            "estimated_diameter_max": 0.0176762835
        },
        "feet": {
            "estimated_diameter_min": 41.7388066307,
            "estimated_diameter_max": 93.330808926
        }
    },
    "is_potentially_hazardous_asteroid": false,
    "close_approach_data": [
        {
            "close_approach_date": "1900-09-19",
            "close_approach_date_full": "1900-Sep-19 23:29",
            "epoch_date_close_approach": -2186353860000,
            "relative_velocity": {
                "kilometers_per_second": "14.8190003058",
                "kilometers_per_hour": "53348.4011007335",
                "miles_per_hour": "33148.621783953"
            },
            "miss_distance": {
                "astronomical": "0.2072518955",
                "lunar": "80.6209873495",
                "kilometers": "31004442.120262585",
                "miles": "19265266.991230273"
            },
            "orbiting_body": "Earth"
        },
        {
            "close_approach_date": "2018-10-07",
            "close_approach_date_full": "2018-Oct-07 20:33",
            "epoch_date_close_approach": 1538944380000,
            "relative_velocity": {
                "kilometers_per_second": "11.1466878225",
                "kilometers_per_hour": "40128.0761610778",
                "miles_per_hour": "24934.0259901986"
            },
            "miss_distance": {
                "astronomical": "0.0191659721",
                "lunar": "7.4555631469",
                "kilometers": "2867188.602639427",
                "miles": "1781588.3843290126"
            },
            "orbiting_body": "Earth"
        },
        {
            "close_approach_date": "2067-09-14",
            "close_approach_date_full": "2067-Sep-14 02:33",
            "epoch_date_close_approach": 3083193180000,
            "relative_velocity": {
                "kilometers_per_second": "17.462737112",
                "kilometers_per_hour": "62865.8536033336",
                "miles_per_hour": "39062.3966459158"
            },
            "miss_distance": {
                "astronomical": "0.3128295848",
                "lunar": "121.6907084872",
                "kilometers": "46798639.559064376",
                "miles": "29079326.1957293488"
            },
            "orbiting_body": "Earth"
        }
    ],
    "orbital_data": {
        "orbit_id": "2",
        "orbit_determination_date": "2018-10-10 06:26:06",
        "first_observation_date": "2018-10-06",
        "last_observation_date": "2018-10-09",
        "data_arc_in_days": 3,
        "observations_used": 31,
        "orbit_uncertainty": "7",
        "minimum_orbit_intersection": ".0199242",
        "jupiter_tisserand_invariant": "4.051",
        "epoch_osculation": "2459000.5",
        "eccentricity": ".4201984402465055",
        "semi_major_axis": "1.703649209312507",
        "inclination": "16.23036808605373",
        "ascending_node_longitude": "13.28390809522973",
        "orbital_period": "812.2106707462033",
        "perihelion_distance": ".9877784688321991",
        "perihelion_argument": "26.98948739963888",
        "aphelion_distance": "2.419519949792815",
        "perihelion_time": "2459233.257951455799",
        "mean_anomaly": "256.833585740625",
        "mean_motion": ".4432347578852378",
        "equinox": "J2000",
        "orbit_class": {
            "orbit_class_type": "APO",
            "orbit_class_description": "Near-Earth asteroid orbits which cross the Earth’s orbit similar to that of 1862 Apollo",
            "orbit_class_range": "a (semi-major axis) > 1.0 AU; q (perihelion) < 1.017 AU"
        }
    },
    "is_sentry_object": false
}